TRANSPORTER-12 OBJECT AZ
1 62656U 25009AZ  26068.71026235  .00016057  00000+0  54903-3 0  9991
2 62656  97.3981 151.9913 0000987  45.3581 314.7740 15.30349724 63792
STARLINK-35516          
1 65918U 25225J   26068.58405574  .00026011  00000+0  88750-3 0  9995
2 65918  53.1603 166.0504 0000985  71.0768 289.0339 15.30190916 24399
